OBJECT_NAME,OBJECT_ID,EPOCH,MEAN_MOTION,ECCENTRICITY,INCLINATION,RA_OF_ASC_NODE,ARG_OF_PERICENTER,MEAN_ANOMALY,EPHEMERIS_TYPE,CLASSIFICATION_TYPE,NORAD_CAT_ID,ELEMENT_SET_NO,REV_AT_EPOCH,BSTAR,MEAN_MOTION_DOT,MEAN_MOTION_DDOT
ONEWEB-0425,2022-012G,2026-06-11T16:28:10.339392,13.10374806,.0002102,87.8840,37.3632,78.0921,282.0442,0,U,51628,999,20860,-.15746E-2,-.537E-5,0
ONEWEB-0428,2022-012H,2026-06-11T15:59:28.627584,13.10370179,.0001772,87.8833,37.3740,80.7689,279.3638,0,U,51629,999,20856,-.99613E-3,-.335E-5,0
ONEWEB-0431,2022-012J,2026-06-11T15:16:16.690656,13.10374317,.0001383,87.8840,37.3724,99.7655,260.3628,0,U,51630,999,20861,.19011E-2,.676E-5,0
ONEWEB-0434,2022-012K,2026-06-11T16:33:08.754624,13.10375051,.0002371,87.8845,37.3868,73.8908,286.2480,0,U,51631,999,20860,-.1185E-2,-.401E-5,0
ONEWEB-0435,2022-012L,2026-06-11T14:54:55.813248,13.10373862,.0001435,87.8837,37.3870,79.9405,280.1885,0,U,51632,999,20858,.88242E-4,.43E-6,0
ONEWEB-0436,2022-012M,2026-06-11T14:13:49.780128,13.17648398,.0001642,87.9145,6.9583,86.8719,273.2600,0,U,51633,999,21294,-.80089E-4,-.18E-6,0
ONEWEB-0438,2022-012N,2026-06-11T16:20:59.345088,13.10373218,.000199,87.8838,37.3777,80.3710,279.7643,0,U,51634,999,20862,-.18875E-2,-.646E-5,0
ONEWEB-0439,2022-012P,2026-06-11T16:25:47.286048,13.10370901,.0001816,87.8837,37.3648,81.6083,278.5250,0,U,51635,999,20860,-.13075E-4,.8E-7,0
ONEWEB-0442,2022-012Q,2026-06-11T14:02:54.214080,13.17649162,.0002415,87.9138,6.9928,84.6670,275.4737,0,U,51636,999,21293,.14151E-3,.68E-6,0
ONEWEB-0443,2022-012R,2026-06-11T14:30:50.281632,13.17649144,.0001862,87.9134,6.9902,76.2619,283.8719,0,U,51637,999,21298,.15917E-3,.75E-6,0
ONEWEB-0444,2022-012S,2026-06-11T16:11:25.629216,13.10371932,.0001829,87.8835,37.3650,76.6969,283.4362,0,U,51638,999,20861,-.18296E-2,-.626E-5,0
ONEWEB-0445,2022-012T,2026-06-11T16:42:31.153824,13.10375544,.0001817,87.8848,37.3488,88.7869,271.3466,0,U,51639,999,20862,-.3477E-3,-.109E-5,0
ONEWEB-0446,2022-012U,2026-06-11T16:09:01.890720,13.10371619,.0001846,87.8835,37.3823,86.6782,273.4556,0,U,51640,999,20860,-.15005E-2,-.511E-5,0
ONEWEB-0448,2022-012V,2026-06-11T16:16:12.772704,13.10373052,.0001789,87.8834,37.3779,79.1691,280.9637,0,U,51641,999,20857,-.18912E-2,-.647E-5,0
ONEWEB-0449,2022-012W,2026-06-11T16:23:22.839072,13.10373823,.0002195,87.8840,37.3625,76.2304,283.9068,0,U,51642,999,20858,-.16971E-2,-.58E-5,0
ONEWEB-0451,2022-012X,2026-06-11T14:08:59.211744,13.17649303,.0002044,87.9147,6.9562,82.9359,277.2005,0,U,51643,999,21292,.17045E-3,.79E-6,0
ONEWEB-0452,2022-012Y,2026-06-11T14:06:32.407776,13.17648753,.0001963,87.9136,6.9939,77.7282,282.4069,0,U,51644,999,21293,.97663E-4,.51E-6,0
ONEWEB-0456,2022-012AA,2026-06-11T16:37:42.430080,13.10374646,.0001664,87.8849,37.3474,79.6097,280.5218,0,U,51646,999,20862,-.61904E-3,-.203E-5,0
ONEWEB-0457,2022-012AB,2026-06-11T16:04:03.154944,13.10369422,.0002112,87.8833,37.3707,89.7866,270.3504,0,U,51647,999,20862,-.13976E-2,-.475E-5,0
ONEWEB-0458,2022-012AC,2026-06-11T16:35:20.315040,13.10374951,.0001893,87.8849,37.3538,75.9404,284.1934,0,U,51648,999,20858,-.94531E-3,-.317E-5,0
ONEWEB-0461,2022-012AD,2026-06-11T14:38:07.609056,13.17647612,.0001923,87.9144,6.9664,89.5395,270.5957,0,U,51649,999,21315,.10441E-3,.53E-6,0
ONEWEB-0463,2022-012AE,2026-06-11T14:11:24.735264,13.17648660,.0001948,87.9134,6.9929,90.8071,269.3284,0,U,51650,999,21293,.13142E-3,.64E-6,0
ONEWEB-0464,2022-012AF,2026-06-11T16:30:33.218208,13.10374860,.0001638,87.8843,37.3767,73.9186,286.2122,0,U,51651,999,20860,-.13293E-2,-.451E-5,0
ONEWEB-0468,2022-012AG,2026-06-11T14:50:10.174848,13.10375720,.0001586,87.8839,37.3846,72.7183,287.4118,0,U,51652,999,20857,-.45951E-3,-.148E-5,0
ONEWEB-0473,2022-012AH,2026-06-11T16:18:35.718048,13.10372967,.0001799,87.8836,37.3738,77.8708,282.2621,0,U,51653,999,20858,-.18294E-2,-.626E-5,0
ONEWEB-0474,2022-012AJ,2026-06-11T16:06:38.592000,13.10370528,.0001673,87.8844,37.3590,72.3887,287.7423,0,U,51654,999,20857,-.15831E-2,-.54E-5,0
ONEWEB-0475,2022-012AK,2026-06-11T14:28:25.148640,13.17648192,.0001664,87.9135,6.9837,66.6504,293.4803,0,U,51655,999,21295,.71542E-4,.41E-6,0
ONEWEB-0490,2022-138A,2026-06-11T16:13:06.754368,13.19724975,.0001674,87.9174,306.0648,98.9014,261.2308,0,U,54113,999,17610,.80506E-4,.45E-6,0
ONEWEB-0492,2022-138B,2026-06-11T09:32:48.786432,13.19726080,.000174,87.9164,306.1219,105.4265,254.7060,0,U,54114,999,17607,.13119E-3,.65E-6,0
ONEWEB-0495,2022-138C,2026-06-11T09:00:57.398112,13.19724301,.0001175,87.9166,306.1289,100.0821,260.0445,0,U,54115,999,17605,-.14052E-4,.7E-7,0
ONEWEB-0497,2022-138D,2026-06-11T16:35:51.418176,13.19724825,.0001768,87.9168,306.0576,98.9100,261.2233,0,U,54116,999,17608,.12205E-3,.62E-6,0
